{
    "links": {
        "self": "http://www.neowsapp.com/rest/v1/neo/3601927?api_key=iIulBulltgU6a56xZRHN4H3l9WmuAYTsLGpBGhQ2"
    },
    "id": "3601927",
    "neo_reference_id": "3601927",
    "name": "(2012 FR52)",
    "designation": "2012 FR52",
    "nasa_jpl_url": "http://ssd.jpl.nasa.gov/sbdb.cgi?sstr=3601927",
    "absolute_magnitude_h": 23.2,
    "estimated_diameter": {
        "kilometers": {
            "estimated_diameter_min": 0.0608912622,
            "estimated_diameter_max": 0.1361570015
        },
        "meters": {
            "estimated_diameter_min": 60.8912622106,
            "estimated_diameter_max": 136.1570015386
        },
        "miles": {
            "estimated_diameter_min": 0.0378360645,
            "estimated_diameter_max": 0.0846040122
        },
        "feet": {
            "estimated_diameter_min": 199.7744887109,
            "estimated_diameter_max": 446.7093369279
        }
    },
    "is_potentially_hazardous_asteroid": false,
    "close_approach_data": [
        {
            "close_approach_date": "2012-03-13",
            "close_approach_date_full": "2012-Mar-13 22:46",
            "epoch_date_close_approach": 1331678760000,
            "relative_velocity": {
                "kilometers_per_second": "2.4664138842",
                "kilometers_per_hour": "8879.0899831835",
                "miles_per_hour": "5517.1212176064"
            },
            "miss_distance": {
                "astronomical": "0.2318589686",
                "lunar": "90.1931387854",
                "kilometers": "34685607.842956882",
                "miles": "21552637.3045416916"
            },
            "orbiting_body": "Earth"
        }
    ],
    "orbital_data": {
        "orbit_id": "9",
        "orbit_determination_date": "2017-04-06 08:50:17",
        "first_observation_date": "2012-03-27",
        "last_observation_date": "2012-04-18",
        "data_arc_in_days": 22,
        "observations_used": 29,
        "orbit_uncertainty": "7",
        "minimum_orbit_intersection": ".228091",
        "jupiter_tisserand_invariant": "3.711",
        "epoch_osculation": "2459000.5",
        "eccentricity": ".3974147881975619",
        "semi_major_axis": "2.027265272875273",
        "inclination": "3.054119793285738",
        "ascending_node_longitude": "15.78473285150979",
        "orbital_period": "1054.300222840642",
        "perihelion_distance": "1.221600073835274",
        "perihelion_argument": "156.4434154198466",
        "aphelion_distance": "2.832930471915272",
        "perihelion_time": "2459163.737645251904",
        "mean_anomaly": "304.2610833066591",
        "mean_motion": ".3414587156493604",
        "equinox": "J2000",
        "orbit_class": {
            "orbit_class_type": "AMO",
            "orbit_class_description": "Near-Earth asteroid orbits similar to that of 1221 Amor",
            "orbit_class_range": "1.017 AU < q (perihelion) < 1.3 AU"
        }
    },
    "is_sentry_object": false
}